CCSDS_OMM_VERS = 2.0
CREATION_DATE  = 
ORIGINATOR     = 

OBJECT_NAME    = STARLINK-35851
OBJECT_ID      = 2025-254J
CENTER_NAME    = EARTH
REF_FRAME      = TEME
TIME_SYSTEM    = UTC
MEAN_ELEMENT_THEORY = SGP/SGP4

EPOCH          = 2025-11-28T12:40:12.422784
MEAN_MOTION    = 15.74246192
ECCENTRICITY   = .00009769
INCLINATION    = 53.1586
RA_OF_ASC_NODE = 345.4718
ARG_OF_PERICENTER = 105.1636
MEAN_ANOMALY   = 254.9492

EPHEMERIS_TYPE = 0
CLASSIFICATION_TYPE = U
NORAD_CAT_ID   = 66356
ELEMENT_SET_NO = 999
REV_AT_EPOCH   = 344
BSTAR          = .13518789E-2
MEAN_MOTION_DOT = .202692E-2
MEAN_MOTION_DDOT = 0

CCSDS_OMM_VERS = 2.0
CREATION_DATE  = 
ORIGINATOR     = 

OBJECT_NAME    = STARLINK-35817
OBJECT_ID      = 2025-254K
CENTER_NAME    = EARTH
REF_FRAME      = TEME
TIME_SYSTEM    = UTC
MEAN_ELEMENT_THEORY = SGP/SGP4

EPOCH          = 2025-11-28T12:39:43.357824
MEAN_MOTION    = 15.74254389
ECCENTRICITY   = .00012741
INCLINATION    = 53.1586
RA_OF_ASC_NODE = 345.4699
ARG_OF_PERICENTER = 88.5349
MEAN_ANOMALY   = 271.5817

EPHEMERIS_TYPE = 0
CLASSIFICATION_TYPE = U
NORAD_CAT_ID   = 66357
ELEMENT_SET_NO = 999
REV_AT_EPOCH   = 344
BSTAR          = .15349435E-2
MEAN_MOTION_DOT = .231092E-2
MEAN_MOTION_DDOT = 0

CCSDS_OMM_VERS = 2.0
CREATION_DATE  = 
ORIGINATOR     = 

OBJECT_NAME    = STARLINK-35807
OBJECT_ID      = 2025-254L
CENTER_NAME    = EARTH
REF_FRAME      = TEME
TIME_SYSTEM    = UTC
MEAN_ELEMENT_THEORY = SGP/SGP4

EPOCH          = 2025-11-28T12:39:14.078592
MEAN_MOTION    = 15.74256972
ECCENTRICITY   = .00011683
INCLINATION    = 53.1587
RA_OF_ASC_NODE = 345.4671
ARG_OF_PERICENTER = 89.4366
MEAN_ANOMALY   = 270.6787

EPHEMERIS_TYPE = 0
CLASSIFICATION_TYPE = U
NORAD_CAT_ID   = 66358
ELEMENT_SET_NO = 999
REV_AT_EPOCH   = 344
BSTAR          = .15156947E-2
MEAN_MOTION_DOT = .228131E-2
MEAN_MOTION_DDOT = 0

CCSDS_OMM_VERS = 2.0
CREATION_DATE  = 
ORIGINATOR     = 

OBJECT_NAME    = STARLINK-35805
OBJECT_ID      = 2025-254M
CENTER_NAME    = EARTH
REF_FRAME      = TEME
TIME_SYSTEM    = UTC
MEAN_ELEMENT_THEORY = SGP/SGP4

EPOCH          = 2025-11-28T12:38:45.086208
MEAN_MOTION    = 15.74228135
ECCENTRICITY   = .00012934
INCLINATION    = 53.1587
RA_OF_ASC_NODE = 345.4653
ARG_OF_PERICENTER = 87.4083
MEAN_ANOMALY   = 272.7085

EPHEMERIS_TYPE = 0
CLASSIFICATION_TYPE = U
NORAD_CAT_ID   = 66359
ELEMENT_SET_NO = 999
REV_AT_EPOCH   = 458
BSTAR          = .11309719E-2
MEAN_MOTION_DOT = .168645E-2
MEAN_MOTION_DDOT = 0

CCSDS_OMM_VERS = 2.0
CREATION_DATE  = 
ORIGINATOR     = 

OBJECT_NAME    = STARLINK-35823
OBJECT_ID      = 2025-254N
CENTER_NAME    = EARTH
REF_FRAME      = TEME
TIME_SYSTEM    = UTC
MEAN_ELEMENT_THEORY = SGP/SGP4

EPOCH          = 2025-11-28T14:09:11.927232
MEAN_MOTION    = 15.74251710
ECCENTRICITY   = .00012799
INCLINATION    = 53.1586
RA_OF_ASC_NODE = 345.1448
ARG_OF_PERICENTER = 70.3410
MEAN_ANOMALY   = 289.7748

EPHEMERIS_TYPE = 0
CLASSIFICATION_TYPE = U
NORAD_CAT_ID   = 66360
ELEMENT_SET_NO = 999
REV_AT_EPOCH   = 345
BSTAR          = .13984124E-2
MEAN_MOTION_DOT = .209922E-2
MEAN_MOTION_DDOT = 0

CCSDS_OMM_VERS = 2.0
CREATION_DATE  = 
ORIGINATOR     = 

OBJECT_NAME    = STARLINK-35813
OBJECT_ID      = 2025-254P
CENTER_NAME    = EARTH
REF_FRAME      = TEME
TIME_SYSTEM    = UTC
MEAN_ELEMENT_THEORY = SGP/SGP4

EPOCH          = 2025-11-28T12:38:15.663552
MEAN_MOTION    = 15.74249011
ECCENTRICITY   = .00009247
INCLINATION    = 53.1586
RA_OF_ASC_NODE = 345.4631
ARG_OF_PERICENTER = 88.8575
MEAN_ANOMALY   = 271.2551

EPHEMERIS_TYPE = 0
CLASSIFICATION_TYPE = U
NORAD_CAT_ID   = 66361
ELEMENT_SET_NO = 999
REV_AT_EPOCH   = 344
BSTAR          = .13538238E-2
MEAN_MOTION_DOT = .203017E-2
MEAN_MOTION_DDOT = 0

CCSDS_OMM_VERS = 2.0
CREATION_DATE  = 
ORIGINATOR     = 

OBJECT_NAME    = STARLINK-35822
OBJECT_ID      = 2025-254Q
CENTER_NAME    = EARTH
REF_FRAME      = TEME
TIME_SYSTEM    = UTC
MEAN_ELEMENT_THEORY = SGP/SGP4

EPOCH          = 2025-11-28T12:36:48.040128
MEAN_MOTION    = 15.74255901
ECCENTRICITY   = .00006808
INCLINATION    = 53.1583
RA_OF_ASC_NODE = 345.4560
ARG_OF_PERICENTER = 84.5836
MEAN_ANOMALY   = 275.5262

EPHEMERIS_TYPE = 0
CLASSIFICATION_TYPE = U
NORAD_CAT_ID   = 66362
ELEMENT_SET_NO = 999
REV_AT_EPOCH   = 344
BSTAR          = .15307403E-2
MEAN_MOTION_DOT = .230458E-2
MEAN_MOTION_DDOT = 0

CCSDS_OMM_VERS = 2.0
CREATION_DATE  = 
ORIGINATOR     = 

OBJECT_NAME    = STARLINK-35806
OBJECT_ID      = 2025-254R
CENTER_NAME    = EARTH
REF_FRAME      = TEME
TIME_SYSTEM    = UTC
MEAN_ELEMENT_THEORY = SGP/SGP4

EPOCH          = 2025-11-28T12:37:17.432544
MEAN_MOTION    = 15.74231803
ECCENTRICITY   = .00013169
INCLINATION    = 53.1585
RA_OF_ASC_NODE = 345.4579
ARG_OF_PERICENTER = 95.7419
MEAN_ANOMALY   = 264.3751

EPHEMERIS_TYPE = 0
CLASSIFICATION_TYPE = U
NORAD_CAT_ID   = 66363
ELEMENT_SET_NO = 999
REV_AT_EPOCH   = 344
BSTAR          = .11438181E-2
MEAN_MOTION_DOT = .170635E-2
MEAN_MOTION_DDOT = 0

CCSDS_OMM_VERS = 2.0
CREATION_DATE  = 
ORIGINATOR     = 

OBJECT_NAME    = STARLINK-35797
OBJECT_ID      = 2025-254S
CENTER_NAME    = EARTH
REF_FRAME      = TEME
TIME_SYSTEM    = UTC
MEAN_ELEMENT_THEORY = SGP/SGP4

EPOCH          = 2025-11-28T14:07:42.647520
MEAN_MOTION    = 15.74310271
ECCENTRICITY   = .00009678
INCLINATION    = 53.1584
RA_OF_ASC_NODE = 345.1379
ARG_OF_PERICENTER = 62.0967
MEAN_ANOMALY   = 298.0151

EPHEMERIS_TYPE = 0
CLASSIFICATION_TYPE = U
NORAD_CAT_ID   = 66364
ELEMENT_SET_NO = 999
REV_AT_EPOCH   = 345
BSTAR          = .14675259E-2
MEAN_MOTION_DOT = .221187E-2
MEAN_MOTION_DDOT = 0

CCSDS_OMM_VERS = 2.0
CREATION_DATE  = 
ORIGINATOR     = 

OBJECT_NAME    = STARLINK-35827
OBJECT_ID      = 2025-254T
CENTER_NAME    = EARTH
REF_FRAME      = TEME
TIME_SYSTEM    = UTC
MEAN_ELEMENT_THEORY = SGP/SGP4

EPOCH          = 2025-11-28T12:35:19.793760
MEAN_MOTION    = 15.74301469
ECCENTRICITY   = .00010257
INCLINATION    = 53.1583
RA_OF_ASC_NODE = 345.4491
ARG_OF_PERICENTER = 93.4295
MEAN_ANOMALY   = 266.6842

EPHEMERIS_TYPE = 0
CLASSIFICATION_TYPE = U
NORAD_CAT_ID   = 66365
ELEMENT_SET_NO = 999
REV_AT_EPOCH   = 344
BSTAR          = .17120635E-2
MEAN_MOTION_DOT = .259232E-2
MEAN_MOTION_DDOT = 0

CCSDS_OMM_VERS = 2.0
CREATION_DATE  = 
ORIGINATOR     = 

OBJECT_NAME    = STARLINK-35845
OBJECT_ID      = 2025-254U
CENTER_NAME    = EARTH
REF_FRAME      = TEME
TIME_SYSTEM    = UTC
MEAN_ELEMENT_THEORY = SGP/SGP4

EPOCH          = 2025-11-28T12:35:49.675200
MEAN_MOTION    = 15.74246229
ECCENTRICITY   = .00009597
INCLINATION    = 53.1583
RA_OF_ASC_NODE = 345.4506
ARG_OF_PERICENTER = 78.2612
MEAN_ANOMALY   = 281.8515

EPHEMERIS_TYPE = 0
CLASSIFICATION_TYPE = U
NORAD_CAT_ID   = 66366
ELEMENT_SET_NO = 999
REV_AT_EPOCH   = 344
BSTAR          = .14287365E-2
MEAN_MOTION_DOT = .214557E-2
MEAN_MOTION_DDOT = 0

CCSDS_OMM_VERS = 2.0
CREATION_DATE  = 
ORIGINATOR     = 

OBJECT_NAME    = STARLINK-35846
OBJECT_ID      = 2025-254V
CENTER_NAME    = EARTH
REF_FRAME      = TEME
TIME_SYSTEM    = UTC
MEAN_ELEMENT_THEORY = SGP/SGP4

EPOCH          = 2025-11-28T12:34:51.368160
MEAN_MOTION    = 15.74226539
ECCENTRICITY   = .00013633
INCLINATION    = 53.1582
RA_OF_ASC_NODE = 345.4458
ARG_OF_PERICENTER = 89.0471
MEAN_ANOMALY   = 271.0705

EPHEMERIS_TYPE = 0
CLASSIFICATION_TYPE = U
NORAD_CAT_ID   = 66367
ELEMENT_SET_NO = 999
REV_AT_EPOCH   = 344
BSTAR          = .10842814E-2
MEAN_MOTION_DOT = .161508E-2
MEAN_MOTION_DDOT = 0

